COSMOS 2501 (702K)      
1 40315U 14075A   25319.31850028  .00000028  00000+0  00000+0 0  9995
2 40315  63.6133 197.7749 0020341 205.8353 154.1420  2.13101415 85296
COSMOS 2514 (751)       
1 41330U 16008A   25322.11801323 -.00000049  00000+0  00000+0 0  9991
2 41330  65.1475 320.2475 0012939 219.0290 140.8977  2.13102690 76127
COSMOS 2522 (752)       
1 42939U 17055A   25321.95647081  .00000060  00000+0  00000+0 0  9992
2 42939  64.0753 199.0732 0006902 228.7385 131.2926  2.13102030 63473
COSMOS 2527 (756)       
1 43508U 18053A   25321.91709420 -.00000029  00000+0  00000+0 0  9992
2 43508  65.4597  80.9612 0008358 220.2318 139.6873  2.13102227 57779
COSMOS 2529 (757)       
1 43687U 18086A   25322.01466882  .00000060  00000+0  00000+0 0  9994
2 43687  64.2914 199.7239 0007790 255.4236 104.5803  2.13102027 54789
COSMOS 2534 (758)       
1 44299U 19030A   25321.07769962  .00000049  00000+0  00000+0 0  9991
2 44299  64.3646 199.7577 0009563 282.7086 212.8930  2.13102216 50402
COSMOS 2544 (759)       
1 44850U 19088A   25321.39236550 -.00000028  00000+0  00000+0 0  9992
2 44850  65.4470  80.8060 0013134 247.1737 112.6691  2.13101948 46201
COSMOS 2545 (760)       
1 45358U 20018A   25322.05755411 -.00000050  00000+0  00000+0 0  9992
2 45358  64.4839 319.8357 0012208 246.5441 113.3468  2.13102595 44165
COSMOS 2547 (705K)      
1 46805U 20075A   25321.77614329  .00000058  00000+0  00000+0 0  9990
2 46805  64.5953 199.5301 0006518 231.0229 129.0084  2.13099956 39408
COSMOS 2557 (706K)      
1 52984U 22075A   25321.47232944 -.00000050  00000+0  00000+0 0  9996
2 52984  64.4235 321.9402 0013801 275.0008  84.8657  2.13102052 26204
COSMOS 2559 (707K)      
1 54031U 22130A   25321.29144396 -.00000049  00000+0  00000+0 0  9994
2 54031  64.3956 322.0371 0012456 192.7783 167.2149  2.13101506 24174
COSMOS 2564 (761)       
1 54377U 22161A   25322.07428383  .00000060  00000+0  00000+0 0  9991
2 54377  64.7372 199.7182 0008968 208.9842 151.0565  2.13102104 23134
COSMOS 2569 (703K)      
1 57517U 23114A   25320.21075225 -.00000024  00000+0  00000+0 0  9997
2 57517  65.1805  79.8098 0009508 287.3231  72.5570  2.13103933 17729
